#dP2021  2 18  0  0  0.00000000      97 __u+U IGS14 FIT  IAC
## 2145 345600.00000000   900.00000000 59263 0.0000000000000
+  124   C01C02C03C04C05C06C07C08C09C10C11C12C13C14C16C19C20
+        C21C22C23C24C25C26C27C28C29C30C32C33C34C35C36C37C38
+        C39C40C41C42C43C44C45C46C60E01E02E03E04E05E07E08E09
+        E11E12E13E14E15E18E19E21E24E25E26E27E30E31E33E36G01
+        G02G03G04G05G06G07G08G09G10G11G12G13G14G15G16G17G18
+        G19G20G21G22G23G24G25G26G27G28G29G30G31G32J01J02J03
+        J07R01R02R03R04R05R07R08R09R11R12R13R14R15R16R17R18
+        R19R20R21R22R24  0  0  0  0  0  0  0  0  0  0  0  0
++        13 13 13 13 13  9  9  9  8  9  8  8  8  8  9  7  7
++         7  7  7  8  8  8  7  7  7  7  7  8  8  7  8  8  8
++         8  8  8  8  8  8  8  8 14  4  4  4  4  4  4  4  4
++         5  4  4  4  4  5  4  4  4  5  4  4  4  4  4  4  3
++         3  3  3  4  3  3  3  3  3  4  3  3  3  4  4  3  3
++         3  3  3  3  3  3  3  4  3  3  4  3  4  3  8  8  8
++        13  6  5  5  5  5  5  5  6  7  5  6  6  6  6  6  6
++         6  6  5  6  5  0  0  0  0  0  0  0  0  0  0  0  0
%c M  cc GPS ccc cccc cccc cccc cccc ccccc ccccc ccccc ccccc
%c cc cc ccc ccc cccc cccc cccc cccc ccccc ccccc ccccc ccccc
%f  1.2500000  1.025000000  0.00000000000  0.000000000000000
%f  0.0000000  0.000000000  0.00000000000  0.000000000000000
%i    0    0    0    0      0      0      0      0         0
%i    0    0    0    0      0      0      0      0         0
/* INFORMATION & ANALYSIS CENTER (IAC)            FINAL DATA
/* S/V CLOCKS ARE ALIGNED TO GNSS TIME                      
/* G:C1WC2W R:C1PC2P E:C1XC5X C:C2IC6I J:C1CC2S             
/* PCV:IGS14_2134 OL/AL:FES2004  NONE     YN ORB:CoN CLK:CoN
*  2021 02 18 19 30  0.00000000
PC01 -34291.408295  24477.480473   -315.480314   -700.277349
PC02   4398.319651  41956.217389   1232.215758    502.482791
PC03 -14842.903274  39468.267102   1261.875093   -449.262675
PC04 -39620.572199  14370.688182    -78.214660   -413.930530
PC05  21805.403175  36079.485911   1373.486320   -783.342094
PC06 -13864.779534  38852.661722  10284.454142    103.570033
PC07 -11347.164859  23989.423186 -32465.546121   -339.567619
PC08 -25026.448019  24834.561060  22942.535152   -911.875706
PC09  -5499.102183  41782.864867  -4333.432592    724.093260
PC10   3115.785732  30106.427265 -28985.292899    -84.328244
PC11  -5381.838176 -20856.534165 -17695.804499   -915.490253
PC12   7069.601792 -26924.291353  -2034.492668    807.459638
PC13  -9683.271418  26259.449274  31555.818085    147.138077
PC14 -16349.980610 -22132.396749  -4787.961517    167.522800
PC16 -11679.905259  39859.227284   7999.541937   -701.219030
PC19  21090.810976  17682.688204  -4539.531374    732.751742
PC20  10091.994689  22959.597770  12226.969553   -917.142093
PC21   7460.829365 -14763.912491 -22458.301200   -844.762536
PC22  20145.557970   1972.925117 -19194.285674   -884.705310
PC23 -27401.291913   5013.031640   1602.426564   -875.956154
PC24  -1009.630931 -16335.821497  22590.614638   -763.410706
PC25 -20978.252407  -7153.190167  16934.262134   -938.174665
PC26  17385.448619 -15618.093032  15267.527817    946.624709
PC27 -12782.877244  23776.602003  -7131.266075    485.535940
PC28 -17309.910568   7655.769002 -20499.476628   -107.925671
PC29  12191.757804  12440.838658  21800.144451    354.224811
PC30   -125.366153  26083.185356   9955.175156    445.945178
PC32  -7406.199522  14809.577431  22477.704273   -896.853070
PC33 -21192.400419 -17603.160491   4501.590797   -958.956932
PC34   -328.135016 -25819.474857 -10551.965848   -736.984416
PC35  17086.664290  -7871.572143  20598.311914   -411.750209
PC36  20576.314802   7829.163587 -17133.735842   -753.719506
PC37 -18419.295894  14945.204424 -14671.715174   -866.361843
PC38 -22185.847629  26947.673636  23597.126394    130.891825
PC39  -8659.200302  40625.947667   7653.630874     28.593367
PC40   -496.241697  26353.187479 -32862.591271    132.912456
PC41 -20304.641185  -2119.410747  19070.180786   -929.876369
PC42  -9582.058907 -22914.496267 -12689.673029   -878.139383
PC43 -12012.363932 -12966.771419 -21589.994922   -603.872833
PC44  12105.339643 -24043.657999   7279.301189     45.503488
PC45  27401.390199  -5130.035073  -1550.475985    365.726902
PC46   2093.469811  16022.973272 -22749.853271    399.243948
PC60   7304.789667  41532.353262   -253.971043     -1.175834
PE01  27471.496697   -863.792164  11001.230875  -1048.934637
PE02 -27407.609311    959.199381 -11115.478554    199.373779
PE03 -16786.484711   3443.215447  24133.332515   -400.117592
PE04   6686.301471 -22490.978120 -18040.306903   -712.566368
PE05 -17178.721904 -17895.892181  16149.590103   -303.477924
PE07   7543.972910  28594.540193   1181.938379   -502.575738
PE08  -6261.508440  22704.085204  17923.964590   6045.007046
PE09  -7811.151358 -28539.598318  -1030.382227   5761.004372
PE11   1268.404154 -21159.664872 -20650.757250   6303.917018
PE12  17776.951149 -23234.703640  -4422.458827   5349.522514
PE13  -1639.937326  21334.484825  20468.629592    412.298470
PE14 -20444.471158   1164.708129 -24870.051450  -1334.530350
PE15 -17677.231433  23321.348409   4492.768906    828.647695
PE18  14015.576849 -10150.612205  16987.480085  -1458.917659
PE19  17266.192641   -815.289661 -24026.224594    207.125069
PE21  26381.240364  11367.268062  -7167.738959   -649.201316
PE24  -9083.632830 -17569.141402  21997.578312   -750.710376
PE25 -26282.141181 -11459.464227   7335.981835   -526.720456
PE26  15929.910569   6331.141089  24142.306602   2132.908880
PE27   9936.549198  17465.713691 -21740.400692     27.082377
PE30 -13134.564092  12891.132699 -23190.408780   3170.505219
PE31  12267.692123 -13261.418381  23453.037929   -478.415966
PE33  23297.766509 -11557.948027  14137.068564   -465.813536
PE36 -15338.359950  -6797.931738 -24375.860494    438.847690
PG01   8705.824230 -19002.252567 -16422.152861    758.481635
PG02 -22002.599986  14263.993531  -3637.464962   -578.217180
PG03  -2246.649039 -16779.853719 -20570.283410    -86.560052
PG04   2030.585900 -26069.478958  -4481.489034   -181.127202
PG05 -16824.825420   7372.450297  19100.222563    -34.059540
PG06 -21588.512895   2404.143778 -15257.047713     -2.411549
PG07  -6848.381806 -14075.362308  21761.201665     63.327437
PG08   5895.287040 -22981.777738  11627.368891    -10.798493
PG09  -7162.336455 -24611.657661   6847.669210   -324.111561
PG10  23971.434735  11770.315789    418.569345    -64.321931
PG11   9077.699275 -24809.254438  -4705.624776    -20.937746
PG12  -3275.417786  15173.098121 -21816.960145     -2.951754
PG13 -12899.711810  14986.296449  17537.730153     98.722013
PG14 -22814.163670 -13523.317562   1553.034834     97.666220
PG15  -3562.367711  23723.150187  10644.484058   -168.517105
PG16  18751.372546  -3381.461950  18459.825725   -282.098958
PG17 -13065.768752 -12038.212374 -19313.158500    396.441875
PG18   9203.460149  11990.685282  21837.019983    347.862150
PG19 -14722.220895  -3272.549235 -22151.231324    -36.757973
PG20  18281.936585  15133.384685  12142.158326    524.631177
PG21  15224.843499 -19531.013252  -8244.454493     96.684189
PG22   7161.370744 -14051.370649 -21163.418458   -676.658557
PG23  18214.169235  16224.562163  10535.091351    118.403061
PG24 -12023.893047  20477.576357 -11724.222148      2.159605
PG25  12095.167389  17999.163793 -15778.891073     83.146673
PG26  24491.506902   2441.938133  10270.293613     46.804691
PG27  12488.375832 -12097.376708  19806.166668    -78.887668
PG28 -22917.186182 -13143.816705   -822.639020    613.677075
PG29   4785.828474  25119.902503   7062.562533   -297.393496
PG30 -17591.022774  -5504.709379  19246.732842   -386.736462
PG31  23123.829986  -4068.265063 -12935.158960   -100.879395
PG32  14702.381676  10108.960719 -19629.832173     19.173208
PJ01 -24848.353564  23303.952416  29900.958326   -341.945677
PJ02 -32357.281846  14651.139713 -18215.480717      2.078389
PJ03 -22720.875745  31982.867603 -10730.214491     -0.854492
PJ07 -25392.475503  33666.313379     36.550682      0.067156
PR01  -8527.276856   7144.059780  22955.699183     75.203379
PR02   6374.757575  21275.839571  12640.795400    467.554345
PR03  15280.541102  19953.028998  -4484.342405     31.021774
PR04  15301.562276   7477.488641 -18966.159322     74.530612
PR05   6850.532142  -9135.781121 -22796.362700     66.724588
PR07 -15448.875530 -19585.324897   5255.050324    -42.470179
PR08 -15383.635850  -7309.802952  19034.412303    -57.474736
PR09    993.052403 -11322.252280  22845.756022    -21.090059
PR11 -25415.326326    558.289338   2157.196539      3.074963
PR12 -18935.040519   8097.408343 -15013.201553    206.092581
PR13  -1623.758894  11072.335913 -22942.972457    -50.899277
PR14  17191.855946   7489.073350 -17282.089548     61.138896
PR15  25449.951388   -363.253104  -1725.345476    105.331072
PR16  18166.065794  -8904.560437  15594.575893    -11.483765
PR17   4546.470506  12602.128127  21713.182180    401.210055
PR18  13012.138302  -3821.209373  21610.205572     67.091397
PR19  15233.897629 -17478.029537  10639.143188   -132.564595
PR20   7922.473639 -22396.249473  -9213.309887   -433.656327
PR21  -5129.289288 -11627.885527 -22114.882679   -188.655078
PR22 -13420.589067   5051.239358 -21131.394984    -98.562509
PR24  -7013.732211  22470.901326   9838.491815     32.049885
EOF
